[{"OBJECT_NAME":"SENTINEL-2B","OBJECT_ID":"2017-013A","EPOCH":"2026-03-09T23:26:28.535424","MEAN_MOTION":14.30819717,"ECCENTRICITY":0.00011315,"INCLINATION":98.565,"RA_OF_ASC_NODE":145.1663,"ARG_OF_PERICENTER":94.2934,"MEAN_ANOMALY":265.8378,"EPHEMERIS_TYPE":0,"CLASSIFICATION_TYPE":"U","NORAD_CAT_ID":42063,"ELEMENT_SET_NO":999,"REV_AT_EPOCH":47045,"BSTAR":3.8552046e-5,"MEAN_MOTION_DOT":5.7e-7,"MEAN_MOTION_DDOT":0},{"OBJECT_NAME":"NOAA 16 DEB","OBJECT_ID":"2000-055M","EPOCH":"2026-03-09T14:52:19.485408","MEAN_MOTION":14.3339635,"ECCENTRICITY":0.0065789,"INCLINATION":99.0166,"RA_OF_ASC_NODE":311.5084,"ARG_OF_PERICENTER":63.9121,"MEAN_ANOMALY":296.8813,"EPHEMERIS_TYPE":0,"CLASSIFICATION_TYPE":"U","NORAD_CAT_ID":41054,"ELEMENT_SET_NO":999,"REV_AT_EPOCH":53620,"BSTAR":0.00052284,"MEAN_MOTION_DOT":1.43e-5,"MEAN_MOTION_DDOT":0}]
